[{"OBJECT_NAME":"STARLINK-32142","OBJECT_ID":"2024-132P","EPOCH":"2026-03-09T05:29:21.462432","MEAN_MOTION":15.3020186,"ECCENTRICITY":0.00013548,"INCLINATION":53.1607,"RA_OF_ASC_NODE":54.294,"ARG_OF_PERICENTER":83.9682,"MEAN_ANOMALY":276.1473,"EPHEMERIS_TYPE":0,"CLASSIFICATION_TYPE":"U","NORAD_CAT_ID":60291,"ELEMENT_SET_NO":999,"REV_AT_EPOCH":9149,"BSTAR":-9.6060923e-5,"MEAN_MOTION_DOT":-3.203e-5,"MEAN_MOTION_DDOT":0},{"OBJECT_NAME":"CZ-6A DEB","OBJECT_ID":"2022-151TQ","EPOCH":"2026-03-09T06:57:26.684352","MEAN_MOTION":15.22919125,"ECCENTRICITY":0.00409545,"INCLINATION":98.8216,"RA_OF_ASC_NODE":191.4692,"ARG_OF_PERICENTER":160.8215,"MEAN_ANOMALY":199.457,"EPHEMERIS_TYPE":0,"CLASSIFICATION_TYPE":"U","NORAD_CAT_ID":54975,"ELEMENT_SET_NO":999,"REV_AT_EPOCH":17711,"BSTAR":0.0066825196,"MEAN_MOTION_DOT":0.00163663,"MEAN_MOTION_DDOT":0}]
